start=new Date('2021-08-22T00:00:00.000Z').valueOf();
sats=[{"REV_AT_EPOCH":"2596","ARG_OF_PERICENTER":"48.9865","COUNTRY_CODE":"US","LAUNCH_DATE":"2021-03-11","ELEMENT_SET_NO":"999","CLASSIFICATION_TYPE":"U","EPHEMERIS_TYPE":"0","MEAN_MOTION_DDOT":"0.0000000000000","OBJECT_ID":"2021-018BK","RCS_SIZE":"LARGE","TLE_LINE2":"2 47844  53.0552 146.5832 0001881  48.9865 311.1287 15.06392751 25960","GP_ID":"183219058","APOAPSIS":"548.538","SEMIMAJOR_AXIS":"6925.371","MEAN_MOTION_DOT":"-0.00000850","MEAN_ELEMENT_THEORY":"SGP4","RA_OF_ASC_NODE":"146.5832","PERIOD":"95.593","PERIAPSIS":"545.933","REF_FRAME":"TEME","FILE":"3101146","DECAY_DATE":null,"MEAN_MOTION":"15.06392751","TLE_LINE1":"1 47844U 21018BK  21234.03402739 -.00000850  00000-0 -38136-4 0  9999","EPOCH":"2021-08-22T00:48:59.966496","OBJECT_NAME":"STARLINK-2446","CENTER_NAME":"EARTH","ECCENTRICITY":"0.00018810","OBJECT_TYPE":"PAYLOAD","NORAD_CAT_ID":"47844","SITE":"AFETR","MEAN_ANOMALY":"311.1287","BSTAR":"-0.00003813600000","TIME_SYSTEM":"UTC","INCLINATION":"53.0552"},{"GP_ID":"183218557","TLE_LINE2":"2 47845  53.0566 146.5119 0001639  96.2628 263.8548 15.06393744 25964","SEMIMAJOR_AXIS":"6925.368","MEAN_MOTION_DOT":"-0.00000870","APOAPSIS":"548.368","CLASSIFICATION_TYPE":"U","EPHEMERIS_TYPE":"0","RCS_SIZE":"LARGE","MEAN_MOTION_DDOT":"0.0000000000000","OBJECT_ID":"2021-018BL","COUNTRY_CODE":"US","LAUNCH_DATE":"2021-03-11","ARG_OF_PERICENTER":"96.2628","ELEMENT_SET_NO":"999","REV_AT_EPOCH":"2596","SITE":"AFETR","MEAN_ANOMALY":"263.8548","BSTAR":"-0.00003951900000","TIME_SYSTEM":"UTC","INCLINATION":"53.0566","OBJECT_TYPE":"PAYLOAD","ECCENTRICITY":"0.00016390","NORAD_CAT_ID":"47845","EPOCH":"2021-08-22T01:15:32.391936","TLE_LINE1":"1 47845U 21018BL  21234.05245824 -.00000870  00000-0 -39519-4 0  9990","MEAN_MOTION":"15.06393744","OBJECT_NAME":"STARLINK-2453","CENTER_NAME":"EARTH","PERIOD":"95.593","PERIAPSIS":"546.098","MEAN_ELEMENT_THEORY":"SGP4","RA_OF_ASC_NODE":"146.5119","DECAY_DATE":null,"FILE":"3101146","REF_FRAME":"TEME"},{"TLE_LINE1":"1 47846U 21018BM  21234.04877089 -.00000809  00000-0 -35436-4 0  9990","EPOCH":"2021-08-22T01:10:13.804896","MEAN_MOTION":"15.06393877","OBJECT_NAME":"STARLINK-2456","CENTER_NAME":"EARTH","PERIAPSIS":"545.880","PERIOD":"95.593","RA_OF_ASC_NODE":"146.5271","MEAN_ELEMENT_THEORY":"SGP4","FILE":"3101100","DECAY_DATE":null,"REF_FRAME":"TEME","BSTAR":"-0.00003543600000","SITE":"AFETR","MEAN_ANOMALY":"309.3812","INCLINATION":"53.0564","TIME_SYSTEM":"UTC","OBJECT_TYPE":"PAYLOAD","ECCENTRICITY":"0.00019520","NORAD_CAT_ID":"47846","LAUNCH_DATE":"2021-03-11","COUNTRY_CODE":"US","ARG_OF_PERICENTER":"50.7350","ELEMENT_SET_NO":"999","REV_AT_EPOCH":"2596","GP_ID":"183217432","TLE_LINE2":"2 47846  53.0564 146.5271 0001952  50.7350 309.3812 15.06393877 25964","MEAN_MOTION_DOT":"-0.00000809","SEMIMAJOR_AXIS":"6925.367","APOAPSIS":"548.584","EPHEMERIS_TYPE":"0","CLASSIFICATION_TYPE":"U","RCS_SIZE":"LARGE","OBJECT_ID":"2021-018BM","MEAN_MOTION_DDOT":"0.0000000000000"},{"NORAD_CAT_ID":"47860","OBJECT_TYPE":"PAYLOAD","ECCENTRICITY":"0.00016610","TIME_SYSTEM":"UTC","INCLINATION":"53.0565","MEAN_ANOMALY":"278.9483","SITE":"AFETR","BSTAR":"0.00007631600000","DECAY_DATE":null,"FILE":"3101220","REF_FRAME":"TEME","PERIOD":"95.592","PERIAPSIS":"546.069","MEAN_ELEMENT_THEORY":"SGP4","RA_OF_ASC_NODE":"176.1917","CENTER_NAME":"EARTH","EPOCH":"2021-08-22T02:52:24.794688","TLE_LINE1":"1 47860U 21021A   21234.11973142  .00000855  00000-0  76316-4 0  9996","MEAN_MOTION":"15.06398044","OBJECT_NAME":"STARLINK-2258","RCS_SIZE":"LARGE","MEAN_MOTION_DDOT":"0.0000000000000","OBJECT_ID":"2021-021A","CLASSIFICATION_TYPE":"U","EPHEMERIS_TYPE":"0","SEMIMAJOR_AXIS":"6925.355","MEAN_MOTION_DOT":"0.00000855","APOAPSIS":"548.370","GP_ID":"183220326","TLE_LINE2":"2 47860  53.0565 176.1917 0001661  81.1694 278.9483 15.06398044 25273","REV_AT_EPOCH":"2527","ELEMENT_SET_NO":"999","COUNTRY_CODE":"US","LAUNCH_DATE":"2021-03-14","ARG_OF_PERICENTER":"81.1694"},{"NORAD_CAT_ID":"47861","OBJECT_TYPE":"PAYLOAD","ECCENTRICITY":"0.00021740","INCLINATION":"53.0566","TIME_SYSTEM":"UTC","BSTAR":"0.00007866300000","SITE":"AFETR","MEAN_ANOMALY":"281.5417","FILE":"3101032","DECAY_DATE":null,"REF_FRAME":"TEME","PERIAPSIS":"545.700","PERIOD":"95.592","RA_OF_ASC_NODE":"162.6030","MEAN_ELEMENT_THEORY":"SGP4","CENTER_NAME":"EARTH","TLE_LINE1":"1 47861U 21021B   21233.80595664  .00000890  00000-0  78663-4 0  9997","OBJECT_NAME":"STARLINK-2280","MEAN_MOTION":"15.06402764","EPOCH":"2021-08-21T19:20:34.653696","RCS_SIZE":"LARGE","OBJECT_ID":"2021-021B","MEAN_MOTION_DDOT":"0.0000000000000","EPHEMERIS_TYPE":"0","CLASSIFICATION_TYPE":"U","MEAN_MOTION_DOT":"0.00000890","SEMIMAJOR_AXIS":"6925.340","APOAPSIS":"548.711","GP_ID":"183213451","TLE_LINE2":"2 47861  53.0566 162.6030 0002174  78.5816 281.5417 15.06402764 25932","REV_AT_EPOCH":"2593","ELEMENT_SET_NO":"999","LAUNCH_DATE":"2021-03-14","COUNTRY_CODE":"US","ARG_OF_PERICENTER":"78.5816"},{"ECCENTRICITY":"0.00020290","OBJECT_TYPE":"PAYLOAD","NORAD_CAT_ID":"47862","BSTAR":"0.00001797900000","MEAN_ANOMALY":"282.5670","SITE":"AFETR","INCLINATION":"53.0557","TIME_SYSTEM":"UTC","RA_OF_ASC_NODE":"157.6915","MEAN_ELEMENT_THEORY":"SGP4","PERIAPSIS":"545.810","PERIOD":"95.592","REF_FRAME":"TEME","FILE":"3101032","DECAY_DATE":null,"TLE_LINE1":"1 47862U 21021C   21233.78614208 -.00000014  00000-0  17979-4 0  9993","MEAN_MOTION":"15.06399577","OBJECT_NAME":"STARLINK-2291","EPOCH":"2021-08-21T18:52:02.675712","CENTER_NAME":"EARTH","EPHEMERIS_TYPE":"0","CLASSIFICATION_TYPE":"U","OBJECT_ID":"2021-021C","MEAN_MOTION_DDOT":"0.0000000000000","RCS_SIZE":"LARGE","TLE_LINE2":"2 47862  53.0557 157.6915 0002029  77.5546 282.5670 15.06399577 25992","GP_ID":"183213699","APOAPSIS":"548.620","MEAN_MOTION_DOT":"-0.00000014","SEMIMAJOR_AXIS":"6925.350","REV_AT_EPOCH":"2599","ARG_OF_PERICENTER":"77.5546","LAUNCH_DATE":"2021-03-14","COUNTRY_CODE":"US","ELEMENT_SET_NO":"999"},{"APOAPSIS":"548.626","MEAN_MOTION_DOT":"-0.00000854","SEMIMAJOR_AXIS":"6925.369","TLE_LINE2":"2 47863  53.0549 168.7778 0002011  74.9998 285.1213 15.06393482 25820","GP_ID":"183214950","OBJECT_ID":"2021-021D","MEAN_MOTION_DDOT":"0.0000000000000","RCS_SIZE":"LARGE","EPHEMERIS_TYPE":"0","CLASSIFICATION_TYPE":"U","ELEMENT_SET_NO":"999","ARG_OF_PERICENTER":"74.9998","LAUNCH_DATE":"2021-03-14","COUNTRY_CODE":"US","REV_AT_EPOCH":"2582","INCLINATION":"53.0549","TIME_SYSTEM":"UTC","BSTAR":"-0.00003843500000","SITE":"AFETR","MEAN_ANOMALY":"285.1213","NORAD_CAT_ID":"47863","ECCENTRICITY":"0.00020110","OBJECT_TYPE":"PAYLOAD","CENTER_NAME":"EARTH","MEAN_MOTION":"15.06393482","TLE_LINE1":"1 47863U 21021D   21233.54564526 -.00000854  00000-0 -38435-4 0  9998","EPOCH":"2021-08-21T13:05:43.750464","OBJECT_NAME":"STARLINK-2293","REF_FRAME":"TEME","DECAY_DATE":null,"FILE":"3101032","RA_OF_ASC_NODE":"168.7778","MEAN_ELEMENT_THEORY":"SGP4","PERIAPSIS":"545.841","PERIOD":"95.593"},{"TIME_SYSTEM":"UTC","INCLINATION":"53.0557","MEAN_ANOMALY":"277.6180","SITE":"AFETR","BSTAR":"0.00007530200000","NORAD_CAT_ID":"47864","OBJECT_TYPE":"PAYLOAD","ECCENTRICITY":"0.00021170","CENTER_NAME":"EARTH","OBJECT_NAME":"STARLINK-2304","TLE_LINE1":"1 47864U 21021E   21234.05058178  .00000840  00000-0  75302-4 0  9994","MEAN_MOTION":"15.06406926","EPOCH":"2021-08-22T01:12:50.265792","DECAY_DATE":null,"FILE":"3101209","REF_FRAME":"TEME","PERIOD":"95.592","PERIAPSIS":"545.726","MEAN_ELEMENT_THEORY":"SGP4","RA_OF_ASC_NODE":"156.5054","SEMIMAJOR_AXIS":"6925.327","MEAN_MOTION_DOT":"0.00000840","APOAPSIS":"548.658","GP_ID":"183220357","TLE_LINE2":"2 47864  53.0557 156.5054 0002117  82.5049 277.6180 15.06406926 25547","RCS_SIZE":"LARGE","MEAN_MOTION_DDOT":"0.0000000000000","OBJECT_ID":"2021-021E","CLASSIFICATION_TYPE":"U","EPHEMERIS_TYPE":"0","ELEMENT_SET_NO":"999","COUNTRY_CODE":"US","LAUNCH_DATE":"2021-03-14","ARG_OF_PERICENTER":"82.5049","REV_AT_EPOCH":"2554"},{"REV_AT_EPOCH":"2597","COUNTRY_CODE":"US","LAUNCH_DATE":"2021-03-14","ARG_OF_PERICENTER":"73.4902","ELEMENT_SET_NO":"999","CLASSIFICATION_TYPE":"U","EPHEMERIS_TYPE":"0","RCS_SIZE":"LARGE","MEAN_MOTION_DDOT":"0.0000000000000","OBJECT_ID":"2021-021F","GP_ID":"183213952","TLE_LINE2":"2 47865  53.0547 167.3937 0001883  73.4902 286.6294 15.06400694 25972","SEMIMAJOR_AXIS":"6925.346","MEAN_MOTION_DOT":"0.00001150","APOAPSIS":"548.515","PERIOD":"95.592","PERIAPSIS":"545.907","MEAN_ELEMENT_THEORY":"SGP4","RA_OF_ASC_NODE":"167.3937","FILE":"3101032","DECAY_DATE":null,"REF_FRAME":"TEME","TLE_LINE1":"1 47865U 21021F   21233.85157048  .00001150  00000-0  96088-4 0  9997","EPOCH":"2021-08-21T20:26:15.689472","MEAN_MOTION":"15.06400694","OBJECT_NAME":"STARLINK-2310","CENTER_NAME":"EARTH","OBJECT_TYPE":"PAYLOAD","ECCENTRICITY":"0.00018830","NORAD_CAT_ID":"47865","SITE":"AFETR","MEAN_ANOMALY":"286.6294","BSTAR":"0.00009608800000","TIME_SYSTEM":"UTC","INCLINATION":"53.0547"},{"GP_ID":"183186071","TLE_LINE2":"2 47866  53.0553 168.8688 0001710  81.9849 278.1334 15.06397419 25973","MEAN_MOTION_DOT":"0.00001020","SEMIMAJOR_AXIS":"6925.356","APOAPSIS":"548.406","EPHEMERIS_TYPE":"0","CLASSIFICATION_TYPE":"U","RCS_SIZE":"MEDIUM","OBJECT_ID":"2021-021G","MEAN_MOTION_DDOT":"0.0000000000000","LAUNCH_DATE":"2021-03-14","COUNTRY_CODE":"US","ARG_OF_PERICENTER":"81.9849","ELEMENT_SET_NO":"999","REV_AT_EPOCH":"2597","BSTAR":"0.00008737600000","SITE":"AFETR","MEAN_ANOMALY":"278.1334","INCLINATION":"53.0553","TIME_SYSTEM":"UTC","OBJECT_TYPE":"PAYLOAD","ECCENTRICITY":"0.00017100","NORAD_CAT_ID":"47866","MEAN_MOTION":"15.06397419","TLE_LINE1":"1 47866U 21021G   21233.52352316  .00001020  00000-0  87376-4 0  9993","EPOCH":"2021-08-21T12:33:52.401024","OBJECT_NAME":"STARLINK-2320","CENTER_NAME":"EARTH","PERIAPSIS":"546.037","PERIOD":"95.592","RA_OF_ASC_NODE":"168.8688","MEAN_ELEMENT_THEORY":"SGP4","FILE":"3100831","DECAY_DATE":null,"REF_FRAME":"TEME"}];
